
# Worst residual: 11.27 km
# MJD 58657.000000 (2019 Jun 23  0:00)
2019-021B = NORAD 44187
1 44187U 19021B   19174.49919926  .00000000  00000-0  00000-0 0  6288
2 99999 022.9362 005.1050 8692801 193.0117 055.8532 00.74695911    08

# Worst residual: 14.37 km
# MJD 58658.000000 (2019 Jun 24  0:00)
2019-021B = NORAD 44187
1 44187U 19021B   19175.49919926  .00000000  00000-0  00000-0 0  6289
2 99999 022.9342 005.0089 8693928 193.1855 324.6753 00.74698626    06

# Worst residual: 13.23 km
# MJD 58659.000000 (2019 Jun 25  0:00)
2019-021B = NORAD 44187
1 44187U 19021B   19176.49919926  .00000000  00000-0  00000-0 0  6280
2 99999 022.9249 004.9001 8696015 193.3787 233.4938 00.74690965    00

# Worst residual: 14.69 km
# MJD 58660.000000 (2019 Jun 26  0:00)
2019-021B = NORAD 44187
1 44187U 19021B   19177.49919926  .00000000  00000-0  00000-0 0  6281
2 99999 022.9198 004.7963 8696057 193.5648 142.3245 00.74687414    06

# Worst residual: 13.61 km
# MJD 58661.000000 (2019 Jun 27  0:00)
2019-021B = NORAD 44187
1 44187U 19021B   19178.49919926  .00000000  00000-0  00000-0 0  6282
2 99999 022.9223 004.6911 8695023 193.7584 051.1447 00.74703961    07

# Worst residual: 12.63 km
# MJD 58662.000000 (2019 Jun 28  0:00)
2019-021B = NORAD 44187
1 44187U 19021B   19179.49919926  .00000000  00000-0  00000-0 0  6283
2 99999 022.9177 004.5931 8693988 193.9413 319.9295 00.74691660    05

# Worst residual: 14.08 km
# MJD 58663.000000 (2019 Jun 29  0:00)
2019-021B = NORAD 44187
1 44187U 19021B   19180.49919926  .00000000  00000-0  00000-0 0  6285
2 99999 022.9076 004.4827 8694763 194.1379 228.7739 00.74693414    01

# Worst residual: 12.86 km
# MJD 58664.000000 (2019 Jun 30  0:00)
2019-021B = NORAD 44187
1 44187U 19021B   19181.49919926  .00000000  00000-0  00000-0 0  6286
2 99999 022.9017 004.3793 8693371 194.3119 137.6208 00.74699754    07

# Worst residual: 13.32 km
# MJD 58665.000000 (2019 Jul  1  0:00)
2019-021B = NORAD 44187
1 44187U 19021B   19182.49919926  .00000000  00000-0  00000-0 0  6287
2 99999 022.9116 004.2806 8691253 194.4863 046.4711 00.74708423    05

# Worst residual: 14.19 km
# MJD 58666.000000 (2019 Jul  2  0:00)
2019-021B = NORAD 44187
1 44187U 19021B   19183.49919926  .00000000  00000-0  00000-0 0  6288
2 99999 022.9091 004.1847 8691394 194.6580 315.2989 00.74702179    01

# Worst residual: 11.46 km
# MJD 58667.000000 (2019 Jul  3  0:00)
2019-021B = NORAD 44187
1 44187U 19021B   19184.49919926  .00000000  00000-0  00000-0 0  6289
2 99999 022.8987 004.0743 8694362 194.8448 224.1462 00.74703778    01

# Worst residual: 15.05 km
# MJD 58668.000000 (2019 Jul  4  0:00)
2019-021B = NORAD 44187
1 44187U 19021B   19185.49919926  .00000000  00000-0  00000-0 0  6280
2 99999 022.8936 003.9750 8693146 195.0169 132.9992 00.74690388    09

# Worst residual: 12.61 km
# MJD 58669.000000 (2019 Jul  5  0:00)
2019-021B = NORAD 44187
1 44187U 19021B   19186.49919926  .00000000  00000-0  00000-0 0  6281
2 99999 022.9013 003.8753 8693036 195.2007 041.8300 00.74714236    09

# Worst residual: 11.79 km
# MJD 58670.000000 (2019 Jul  6  0:00)
2019-021B = NORAD 44187
1 44187U 19021B   19187.49919926  .00000000  00000-0  00000-0 0  6282
2 99999 022.8989 003.7790 8693601 195.3813 310.6175 00.74698480    03

# Worst residual: 11.88 km
# MJD 58671.000000 (2019 Jul  7  0:00)
2019-021B = NORAD 44187
1 44187U 19021B   19188.49919926  .00000000  00000-0  00000-0 0  6283
2 99999 022.8879 003.6683 8695302 195.5757 219.4565 00.74695899    00

# Worst residual: 15.53 km
# MJD 58672.000000 (2019 Jul  8  0:00)
2019-021B = NORAD 44187
1 44187U 19021B   19189.49919926  .00000000  00000-0  00000-0 0  6284
2 99999 022.8892 003.5701 8693516 195.7536 128.3019 00.74688423    04

# Worst residual: 13.30 km
# MJD 58673.000000 (2019 Jul  9  0:00)
2019-021B = NORAD 44187
1 44187U 19021B   19190.49919926  .00000000  00000-0  00000-0 0  6286
2 99999 022.8934 003.4687 8693105 195.9348 037.1452 00.74704158    02

# Worst residual: 12.66 km
# MJD 58674.000000 (2019 Jul 10  0:00)
2019-021B = NORAD 44187
1 44187U 19021B   19191.49919926  .00000000  00000-0  00000-0 0  6287
2 99999 022.8929 003.3729 8693372 196.1077 305.9814 00.74693011    03

# Worst residual: 9.88 km
# MJD 58675.000000 (2019 Jul 11  0:00)
2019-021B = NORAD 44187
1 44187U 19021B   19192.49919926  .00000000  00000-0  00000-0 0  6288
2 99999 022.8829 003.2622 8695533 196.2986 214.8322 00.74698592    05

# Worst residual: 14.05 km
# MJD 58676.000000 (2019 Jul 12  0:00)
2019-021B = NORAD 44187
1 44187U 19021B   19193.49919926  .00000000  00000-0  00000-0 0  6289
2 99999 022.8907 003.1665 8693811 196.4749 123.6765 00.74687590    08

# Worst residual: 11.26 km
# MJD 58677.000000 (2019 Jul 13  0:00)
2019-021B = NORAD 44187
1 44187U 19021B   19194.49919926  .00000000  00000-0  00000-0 0  6280
2 99999 022.8896 003.0638 8693961 196.6576 032.5194 00.74712724    02

# Worst residual: 14.11 km
# MJD 58678.000000 (2019 Jul 14  0:00)
2019-021B = NORAD 44187
1 44187U 19021B   19195.49919926  .00000000  00000-0  00000-0 0  6281
2 99999 022.8878 002.9695 8694137 196.8311 301.3376 00.74695486    02

# Worst residual: 9.17 km
# MJD 58679.000000 (2019 Jul 15  0:00)
2019-021B = NORAD 44187
1 44187U 19021B   19196.49919926  .00000000  00000-0  00000-0 0  6282
2 99999 022.8754 002.8579 8696363 197.0243 210.1860 00.74702695    01

# Worst residual: 15.57 km
# MJD 58680.000000 (2019 Jul 16  0:00)
2019-021B = NORAD 44187
1 44187U 19021B   19197.49919926  .00000000  00000-0  00000-0 0  6283
2 99999 022.8791 002.7614 8693928 197.1981 119.0317 00.74693815    02
